[{"OBJECT_NAME":"STARLINK-32164","OBJECT_ID":"2024-131S","EPOCH":"2026-03-09T22:48:37.778400","MEAN_MOTION":15.301867,"ECCENTRICITY":0.00013434,"INCLINATION":53.1609,"RA_OF_ASC_NODE":51.5632,"ARG_OF_PERICENTER":88.1024,"MEAN_ANOMALY":272.0131,"EPHEMERIS_TYPE":0,"CLASSIFICATION_TYPE":"U","NORAD_CAT_ID":60271,"ELEMENT_SET_NO":999,"REV_AT_EPOCH":9165,"BSTAR":4.3623419e-5,"MEAN_MOTION_DOT":9.32e-6,"MEAN_MOTION_DDOT":0},{"OBJECT_NAME":"CZ-2D R\/B","OBJECT_ID":"2022-004B","EPOCH":"2026-03-09T22:50:52.634112","MEAN_MOTION":14.60339325,"ECCENTRICITY":0.04874226,"INCLINATION":98.4783,"RA_OF_ASC_NODE":157.6846,"ARG_OF_PERICENTER":297.671,"MEAN_ANOMALY":57.5829,"EPHEMERIS_TYPE":0,"CLASSIFICATION_TYPE":"U","NORAD_CAT_ID":51103,"ELEMENT_SET_NO":999,"REV_AT_EPOCH":21718,"BSTAR":0.00037005679,"MEAN_MOTION_DOT":0.00010482,"MEAN_MOTION_DDOT":0}]
